QIANFAN-60              
1 62790U 25016F   25273.45632892  .00000063  00000+0  77135-4 0  9991
2 62790  88.9732 110.6637 0014892 189.3455 170.7422 13.52524324 37336
QIANFAN-61              
1 62791U 25016G   25284.96890166  .00000054  00000+0  64167-4 0  9991
2 62791  88.9790 109.5915 0015316 155.2999 204.8889 13.50974083 38903
QIANFAN-62              
1 62792U 25016H   25284.97312904  .00000045  00000+0  50590-4 0  9997
2 62792  88.9737 109.4929 0016670 156.1680 204.0247 13.50967975 38890
QIANFAN-63              
1 62793U 25016J   25284.99772455  .00000071  00000+0  91815-4 0  9995
2 62793  88.9744 109.4377 0016581 161.2811 198.8953 13.50971027 38932
QIANFAN-64              
1 62794U 25016K   25284.96480398  .00000054  00000+0  65347-4 0  9997
2 62794  88.9730 109.4235 0014725 153.7680 206.4220 13.50972629 38920
QIANFAN-65              
1 62795U 25016L   25284.96070979  .00000057  00000+0  69122-4 0  9996
2 62795  88.9724 109.4522 0014502 155.3872 204.7974 13.50971601 38901
QIANFAN-66              
1 62796U 25016M   25284.76742828  .00000126  00000+0  17597-3 0  9999
2 62796  88.9747 109.4302 0015725 152.1511 208.0485 13.50966984 38920
QIANFAN-67              
1 62797U 25016N   25284.91953466  .00000058  00000+0  71145-4 0  9993
2 62797  88.9738 109.4460 0015518 158.3422 201.8388 13.50968328 38911
QIANFAN-68              
1 62798U 25016P   25284.98540319  .00000050  00000+0  57968-4 0  9999
2 62798  88.9740 109.4821 0015624 156.5018 203.6850 13.50970666 38906
QIANFAN-69              
1 62799U 25016Q   25285.00188917  .00000055  00000+0  66244-4 0  9998
2 62799  88.9716 109.3631 0016343 157.7311 202.4553 13.50968253 38946
QIANFAN-70              
1 62800U 25016R   25284.94415458  .00000072  00000+0  92294-4 0  9999
2 62800  88.9741 109.4945 0016193 148.5516 211.6607 13.50973323 38894
QIANFAN-71              
1 62801U 25016S   25284.94013657  .00000046  00000+0  51962-4 0  9993
2 62801  88.9731 109.4783 0016154 161.2874 198.8874 13.50971882 38890
QIANFAN-72              
1 62802U 25016T   25274.29087208  .00000084  00000+0  11481-3 0  9997
2 62802  88.9730 110.6012 0018440 200.3911 159.6505 13.49486897 37447
QIANFAN-73              
1 63159U 25046A   25284.90938241  .00000139  00000+0  19662-3 0  9997
2 63159  88.9800 326.4231 0013051 306.8997  53.0957 13.50968883 39060
QIANFAN-74              
1 63160U 25046B   25284.96698645  .00000141  00000+0  19917-3 0  9992
2 63160  88.9795 326.3055 0002203 100.8294 259.3106 13.50970833 39130
QIANFAN-75              
1 63161U 25046C   25284.95460110  .00000034  00000+0  34757-4 0  9997
2 63161  88.9802 326.5394 0014191 309.8054  50.1847 13.50978037 39001
QIANFAN-76              
1 63162U 25046D   25284.95053931 -.00000064  00000+0 -11779-3 0  9990
2 63162  88.9796 326.5205 0011834 311.3055  48.7076 13.50971285 39011
QIANFAN-77              
1 63163U 25046E   25284.97460407  .00000343  00000+0  24017-3 0  9990
2 63163  88.9798 325.0326 0012463 273.0800  86.8950 13.96068457 39835
QIANFAN-78              
1 63164U 25046F   25284.91764777  .00000141  00000+0  19989-3 0  9990
2 63164  88.9796 326.3888 0013201 313.5511  46.4543 13.50971140 39080
QIANFAN-79              
1 63165U 25046G   25284.94632522  .00000146  00000+0  20820-3 0  9997
2 63165  88.9805 326.4910 0012851 311.5921  48.4128 13.50970346 39035
QIANFAN-80              
1 63166U 25046H   25284.96290042  .00000163  00000+0  23458-3 0  9996
2 63166  88.9801 326.1978 0011924 317.0770  42.9449 13.50970851 39199
QIANFAN-81              
1 63167U 25046J   25284.94211416  .00000030  00000+0  28161-4 0  9993
2 63167  88.9801 326.2683 0012688 303.2624  56.7311 13.50985219 39147
QIANFAN-82              
1 63168U 25046K   25284.90116234  .00000151  00000+0  21479-3 0  9990
2 63168  88.9801 326.3161 0011002 313.3744  46.6490 13.50967916 39122
QIANFAN-83              
1 63169U 25046L   25284.91284088  .00000180  00000+0  21740-3 0  9998
2 63169  88.9801 326.2126 0012035 299.6290  60.3668 13.61962126 39188
QIANFAN-84              
1 63170U 25046M   25284.92955681  .00000056  00000+0  67976-4 0  9999
2 63170  88.9802 326.4461 0013885 307.9371  52.0525 13.50985580 39055
QIANFAN-85              
1 63171U 25046N   25284.92586377  .00000165  00000+0  23701-3 0  9990
2 63171  88.9801 326.3185 0011328 311.8402  48.1781 13.50970657 39123
QIANFAN-86              
1 63172U 25046P   25284.93410389  .00000160  00000+0  22937-3 0  9996
2 63172  88.9803 326.1783 0009309 318.1805  41.8634 13.50967786 39206
QIANFAN-87              
1 63173U 25046Q   25282.68330257  .00000145  00000+0  20656-3 0  9991
2 63173  88.9804 326.5243 0010016 319.1660  40.8739 13.50979787 38837
QIANFAN-88              
1 63174U 25046R   25283.51451471  .00000149  00000+0  21299-3 0  9995
2 63174  88.9800 326.3915 0010557 325.4993  34.5472 13.50973338 38972
QIANFAN-89              
1 63175U 25046S   25284.95862792  .00000167  00000+0  24015-3 0  9996
2 63175  88.9801 326.4318 0014554 308.1787  51.8052 13.50968993 39060
QIANFAN-90              
1 63176U 25046T   25284.91330311  .00000139  00000+0  19662-3 0  9991
2 63176  88.9799 326.4088 0011478 307.2095  52.8008 13.50970888 39074
